{
    "links": {
        "self": "http://www.neowsapp.com/rest/v1/neo/3651170?api_key=iIulBulltgU6a56xZRHN4H3l9WmuAYTsLGpBGhQ2"
    },
    "id": "3651170",
    "neo_reference_id": "3651170",
    "name": "(2013 TU135)",
    "designation": "2013 TU135",
    "nasa_jpl_url": "http://ssd.jpl.nasa.gov/sbdb.cgi?sstr=3651170",
    "absolute_magnitude_h": 24.0,
    "estimated_diameter": {
        "kilometers": {
            "estimated_diameter_min": 0.0421264611,
            "estimated_diameter_max": 0.0941976306
        },
        "meters": {
            "estimated_diameter_min": 42.1264610556,
            "estimated_diameter_max": 94.1976305719
        },
        "miles": {
            "estimated_diameter_min": 0.0261761612,
            "estimated_diameter_max": 0.0585316759
        },
        "feet": {
            "estimated_diameter_min": 138.2101784897,
            "estimated_diameter_max": 309.0473542854
        }
    },
    "is_potentially_hazardous_asteroid": false,
    "close_approach_data": [
        {
            "close_approach_date": "2013-10-11",
            "close_approach_date_full": "2013-Oct-11 09:29",
            "epoch_date_close_approach": 1381483740000,
            "relative_velocity": {
                "kilometers_per_second": "10.476123988",
                "kilometers_per_hour": "37714.0463569325",
                "miles_per_hour": "23434.0417488395"
            },
            "miss_distance": {
                "astronomical": "0.0344149853",
                "lunar": "13.3874292817",
                "kilometers": "5148408.496961311",
                "miles": "3199072.6970396518"
            },
            "orbiting_body": "Earth"
        }
    ],
    "orbital_data": {
        "orbit_id": "9",
        "orbit_determination_date": "2017-04-06 08:44:08",
        "first_observation_date": "2013-10-14",
        "last_observation_date": "2013-11-03",
        "data_arc_in_days": 20,
        "observations_used": 37,
        "orbit_uncertainty": "8",
        "minimum_orbit_intersection": ".0296514",
        "jupiter_tisserand_invariant": "3.168",
        "epoch_osculation": "2456582.5",
        "eccentricity": ".5907706189455499",
        "semi_major_axis": "2.505770756724685",
        "inclination": "13.035138001451",
        "ascending_node_longitude": "202.2774853736402",
        "orbital_period": "1448.806653282259",
        "perihelion_distance": "1.025435015838784",
        "perihelion_argument": "174.2756017964134",
        "aphelion_distance": "3.986106497610586",
        "perihelion_time": "2456574.990619933668",
        "mean_anomaly": "1.865933468592958",
        "mean_motion": ".2484803608434729",
        "equinox": "J2000",
        "orbit_class": {
            "orbit_class_type": "AMO",
            "orbit_class_description": "Near-Earth asteroid orbits similar to that of 1221 Amor",
            "orbit_class_range": "1.017 AU < q (perihelion) < 1.3 AU"
        }
    },
    "is_sentry_object": false
}